UNKNOWN                 
1 87706U          25351.35467685  .00003902  00000+0  69135-3 0  9998
2 87706  98.6721 175.1850 0104396 253.4954 227.4487 14.64431649579192
UNKNOWN                 
1 87725U          25352.15138081  .00030032  00000+0  25597-2 0  9990
2 87725  82.8670 250.9251 0018545  38.2139 322.0395 14.97476626634734
UNKNOWN                 
1 87730U          25347.97281151  .00000116  00000+0  10679-3 0  9993
2 87730  82.9451 233.1883 0030203   2.9152 357.2174 13.74505916585504
UNKNOWN                 
1 87737U          25352.09766773  .00000025  00000+0  70202-4 0  9995
2 87737  99.3741 223.7797 0133152 175.4171 184.8230 13.72341587604596
UNKNOWN                 
1 87764U          25352.45665110  .00004246  00000+0  73451-3 0  9995
2 87764  65.6707 146.7218 0359225  73.8009 323.0241 14.34928152619940
UNKNOWN                 
1 87771U          25350.78382830  .00000097  00000+0  34760-3 0  9992
2 87771 100.7426 187.0366 0119744 353.2173   6.7316 13.19518182535626
UNKNOWN                 
1 87782U          25352.38213975  .00002024  00000+0  68303-2 0  9996
2 87782 102.3410 224.7220 0045716 238.4675 121.1951 13.00438718568725
UNKNOWN                 
1 87843U          25347.14394888  .00002857  00000+0  66071-2 0  9999
2 87843  99.6629 101.2591 0231272   3.4413 356.8231 13.16548050564213
UNKNOWN                 
1 87845U          25351.34428041  .00000835  00000+0  16247-2 0  9991
2 87845  98.8575 307.9407 0575499 243.1399 110.9773 12.88933361565802
UNKNOWN                 
1 87878U          25349.13733908  .00002715  00000+0  85850-3 0  9998
2 87878  99.1570 108.7949 0035457 258.1463 101.5746 14.40731841611647
UNKNOWN                 
1 87884U          25342.02119548  .00000561  00000+0  32940-3 0  9993
2 87884  98.7350  86.0325 0154867  81.7201 280.1495 14.05981151617708
UNKNOWN                 
1 87991U          25349.87065611  .00002685  00000+0  54059-2 0  9996
2 87991  28.6191 246.9578 0884685  60.1687 308.3836 12.35118519523389
