CCSDS_OMM_VERS = 2.0
CREATION_DATE  = 
ORIGINATOR     = 

OBJECT_NAME    = UNKNOWN
OBJECT_ID      = 
CENTER_NAME    = EARTH
REF_FRAME      = TEME
TIME_SYSTEM    = UTC
MEAN_ELEMENT_THEORY = SGP/SGP4

EPOCH          = 2025-12-17T08:30:44.079840
MEAN_MOTION    = 14.64431649
ECCENTRICITY   = .0104396
INCLINATION    = 98.6721
RA_OF_ASC_NODE = 175.1850
ARG_OF_PERICENTER = 253.4954
MEAN_ANOMALY   = 227.4487

EPHEMERIS_TYPE = 0
CLASSIFICATION_TYPE = U
NORAD_CAT_ID   = 87706
ELEMENT_SET_NO = 999
REV_AT_EPOCH   = 57919
BSTAR          = .69135E-3
MEAN_MOTION_DOT = .3902E-4
MEAN_MOTION_DDOT = 0

CCSDS_OMM_VERS = 2.0
CREATION_DATE  = 
ORIGINATOR     = 

OBJECT_NAME    = UNKNOWN
OBJECT_ID      = 
CENTER_NAME    = EARTH
REF_FRAME      = TEME
TIME_SYSTEM    = UTC
MEAN_ELEMENT_THEORY = SGP/SGP4

EPOCH          = 2025-12-18T03:37:59.301984
MEAN_MOTION    = 14.97476626
ECCENTRICITY   = .0018545
INCLINATION    = 82.8670
RA_OF_ASC_NODE = 250.9251
ARG_OF_PERICENTER = 38.2139
MEAN_ANOMALY   = 322.0395

EPHEMERIS_TYPE = 0
CLASSIFICATION_TYPE = U
NORAD_CAT_ID   = 87725
ELEMENT_SET_NO = 999
REV_AT_EPOCH   = 63473
BSTAR          = .25597E-2
MEAN_MOTION_DOT = .30032E-3
MEAN_MOTION_DDOT = 0

CCSDS_OMM_VERS = 2.0
CREATION_DATE  = 
ORIGINATOR     = 

OBJECT_NAME    = UNKNOWN
OBJECT_ID      = 
CENTER_NAME    = EARTH
REF_FRAME      = TEME
TIME_SYSTEM    = UTC
MEAN_ELEMENT_THEORY = SGP/SGP4

EPOCH          = 2025-12-13T23:20:50.914464
MEAN_MOTION    = 13.74505916
ECCENTRICITY   = .0030203
INCLINATION    = 82.9451
RA_OF_ASC_NODE = 233.1883
ARG_OF_PERICENTER = 2.9152
MEAN_ANOMALY   = 357.2174

EPHEMERIS_TYPE = 0
CLASSIFICATION_TYPE = U
NORAD_CAT_ID   = 87730
ELEMENT_SET_NO = 999
REV_AT_EPOCH   = 58550
BSTAR          = .10679E-3
MEAN_MOTION_DOT = .116E-5
MEAN_MOTION_DDOT = 0

CCSDS_OMM_VERS = 2.0
CREATION_DATE  = 
ORIGINATOR     = 

OBJECT_NAME    = UNKNOWN
OBJECT_ID      = 
CENTER_NAME    = EARTH
REF_FRAME      = TEME
TIME_SYSTEM    = UTC
MEAN_ELEMENT_THEORY = SGP/SGP4

EPOCH          = 2025-12-18T02:20:38.491872
MEAN_MOTION    = 13.72341587
ECCENTRICITY   = .0133152
INCLINATION    = 99.3741
RA_OF_ASC_NODE = 223.7797
ARG_OF_PERICENTER = 175.4171
MEAN_ANOMALY   = 184.8230

EPHEMERIS_TYPE = 0
CLASSIFICATION_TYPE = U
NORAD_CAT_ID   = 87737
ELEMENT_SET_NO = 999
REV_AT_EPOCH   = 60459
BSTAR          = .70202E-4
MEAN_MOTION_DOT = .25E-6
MEAN_MOTION_DDOT = 0

CCSDS_OMM_VERS = 2.0
CREATION_DATE  = 
ORIGINATOR     = 

OBJECT_NAME    = UNKNOWN
OBJECT_ID      = 
CENTER_NAME    = EARTH
REF_FRAME      = TEME
TIME_SYSTEM    = UTC
MEAN_ELEMENT_THEORY = SGP/SGP4

EPOCH          = 2025-12-18T10:57:34.655040
MEAN_MOTION    = 14.34928152
ECCENTRICITY   = .0359225
INCLINATION    = 65.6707
RA_OF_ASC_NODE = 146.7218
ARG_OF_PERICENTER = 73.8009
MEAN_ANOMALY   = 323.0241

EPHEMERIS_TYPE = 0
CLASSIFICATION_TYPE = U
NORAD_CAT_ID   = 87764
ELEMENT_SET_NO = 999
REV_AT_EPOCH   = 61994
BSTAR          = .73451E-3
MEAN_MOTION_DOT = .4246E-4
MEAN_MOTION_DDOT = 0

CCSDS_OMM_VERS = 2.0
CREATION_DATE  = 
ORIGINATOR     = 

OBJECT_NAME    = UNKNOWN
OBJECT_ID      = 
CENTER_NAME    = EARTH
REF_FRAME      = TEME
TIME_SYSTEM    = UTC
MEAN_ELEMENT_THEORY = SGP/SGP4

EPOCH          = 2025-12-16T18:48:42.765120
MEAN_MOTION    = 13.19518182
ECCENTRICITY   = .0119744
INCLINATION    = 100.7426
RA_OF_ASC_NODE = 187.0366
ARG_OF_PERICENTER = 353.2173
MEAN_ANOMALY   = 6.7316

EPHEMERIS_TYPE = 0
CLASSIFICATION_TYPE = U
NORAD_CAT_ID   = 87771
ELEMENT_SET_NO = 999
REV_AT_EPOCH   = 53562
BSTAR          = .3476E-3
MEAN_MOTION_DOT = .97E-6
MEAN_MOTION_DDOT = 0

CCSDS_OMM_VERS = 2.0
CREATION_DATE  = 
ORIGINATOR     = 

OBJECT_NAME    = UNKNOWN
OBJECT_ID      = 
CENTER_NAME    = EARTH
REF_FRAME      = TEME
TIME_SYSTEM    = UTC
MEAN_ELEMENT_THEORY = SGP/SGP4

EPOCH          = 2025-12-18T09:10:16.874400
MEAN_MOTION    = 13.00438718
ECCENTRICITY   = .0045716
INCLINATION    = 102.3410
RA_OF_ASC_NODE = 224.7220
ARG_OF_PERICENTER = 238.4675
MEAN_ANOMALY   = 121.1951

EPHEMERIS_TYPE = 0
CLASSIFICATION_TYPE = U
NORAD_CAT_ID   = 87782
ELEMENT_SET_NO = 999
REV_AT_EPOCH   = 56872
BSTAR          = .68303E-2
MEAN_MOTION_DOT = .2024E-4
MEAN_MOTION_DDOT = 0

CCSDS_OMM_VERS = 2.0
CREATION_DATE  = 
ORIGINATOR     = 

OBJECT_NAME    = UNKNOWN
OBJECT_ID      = 
CENTER_NAME    = EARTH
REF_FRAME      = TEME
TIME_SYSTEM    = UTC
MEAN_ELEMENT_THEORY = SGP/SGP4

EPOCH          = 2025-12-13T03:27:17.183232
MEAN_MOTION    = 13.16548050
ECCENTRICITY   = .0231272
INCLINATION    = 99.6629
RA_OF_ASC_NODE = 101.2591
ARG_OF_PERICENTER = 3.4413
MEAN_ANOMALY   = 356.8231

EPHEMERIS_TYPE = 0
CLASSIFICATION_TYPE = U
NORAD_CAT_ID   = 87843
ELEMENT_SET_NO = 999
REV_AT_EPOCH   = 56421
BSTAR          = .66071E-2
MEAN_MOTION_DOT = .2857E-4
MEAN_MOTION_DDOT = 0

CCSDS_OMM_VERS = 2.0
CREATION_DATE  = 
ORIGINATOR     = 

OBJECT_NAME    = UNKNOWN
OBJECT_ID      = 
CENTER_NAME    = EARTH
REF_FRAME      = TEME
TIME_SYSTEM    = UTC
MEAN_ELEMENT_THEORY = SGP/SGP4

EPOCH          = 2025-12-17T08:15:45.827424
MEAN_MOTION    = 12.88933361
ECCENTRICITY   = .0575499
INCLINATION    = 98.8575
RA_OF_ASC_NODE = 307.9407
ARG_OF_PERICENTER = 243.1399
MEAN_ANOMALY   = 110.9773

EPHEMERIS_TYPE = 0
CLASSIFICATION_TYPE = U
NORAD_CAT_ID   = 87845
ELEMENT_SET_NO = 999
REV_AT_EPOCH   = 56580
BSTAR          = .16247E-2
MEAN_MOTION_DOT = .835E-5
MEAN_MOTION_DDOT = 0

CCSDS_OMM_VERS = 2.0
CREATION_DATE  = 
ORIGINATOR     = 

OBJECT_NAME    = UNKNOWN
OBJECT_ID      = 
CENTER_NAME    = EARTH
REF_FRAME      = TEME
TIME_SYSTEM    = UTC
MEAN_ELEMENT_THEORY = SGP/SGP4

EPOCH          = 2025-12-15T03:17:46.096512
MEAN_MOTION    = 14.40731841
ECCENTRICITY   = .0035457
INCLINATION    = 99.1570
RA_OF_ASC_NODE = 108.7949
ARG_OF_PERICENTER = 258.1463
MEAN_ANOMALY   = 101.5746

EPHEMERIS_TYPE = 0
CLASSIFICATION_TYPE = U
NORAD_CAT_ID   = 87878
ELEMENT_SET_NO = 999
REV_AT_EPOCH   = 61164
BSTAR          = .8585E-3
MEAN_MOTION_DOT = .2715E-4
MEAN_MOTION_DDOT = 0

CCSDS_OMM_VERS = 2.0
CREATION_DATE  = 
ORIGINATOR     = 

OBJECT_NAME    = UNKNOWN
OBJECT_ID      = 
CENTER_NAME    = EARTH
REF_FRAME      = TEME
TIME_SYSTEM    = UTC
MEAN_ELEMENT_THEORY = SGP/SGP4

EPOCH          = 2025-12-08T00:30:31.289472
MEAN_MOTION    = 14.05981151
ECCENTRICITY   = .0154867
INCLINATION    = 98.7350
RA_OF_ASC_NODE = 86.0325
ARG_OF_PERICENTER = 81.7201
MEAN_ANOMALY   = 280.1495

EPHEMERIS_TYPE = 0
CLASSIFICATION_TYPE = U
NORAD_CAT_ID   = 87884
ELEMENT_SET_NO = 999
REV_AT_EPOCH   = 61770
BSTAR          = .3294E-3
MEAN_MOTION_DOT = .561E-5
MEAN_MOTION_DDOT = 0

CCSDS_OMM_VERS = 2.0
CREATION_DATE  = 
ORIGINATOR     = 

OBJECT_NAME    = UNKNOWN
OBJECT_ID      = 
CENTER_NAME    = EARTH
REF_FRAME      = TEME
TIME_SYSTEM    = UTC
MEAN_ELEMENT_THEORY = SGP/SGP4

EPOCH          = 2025-12-15T20:53:44.687904
MEAN_MOTION    = 12.35118519
ECCENTRICITY   = .0884685
INCLINATION    = 28.6191
RA_OF_ASC_NODE = 246.9578
ARG_OF_PERICENTER = 60.1687
MEAN_ANOMALY   = 308.3836

EPHEMERIS_TYPE = 0
CLASSIFICATION_TYPE = U
NORAD_CAT_ID   = 87991
ELEMENT_SET_NO = 999
REV_AT_EPOCH   = 52338
BSTAR          = .54059E-2
MEAN_MOTION_DOT = .2685E-4
MEAN_MOTION_DDOT = 0

